STARLINK-5702           
1 55622U 23020BF  25195.70630716 -.00000072  00000+0  97590-5 0  9993
2 55622  43.0029 204.5271 0001435 282.5788  77.4894 15.02536248133275
STARLINK-5698           
1 55623U 23020BG  25195.36948129  .00000575  00000+0  57623-4 0  9995
2 55623  43.0025 206.2982 0001425 277.9033  82.1647 15.02535113133224
STARLINK-5484           
1 55628U 23021A   25195.94103035 -.00000947  00000+0 -71554-4 0  9998
2 55628  70.0005  83.9925 0002675 270.4046  89.6806 14.98335804132681
STARLINK-5497           
1 55629U 23021B   25195.94520865 -.00000345  00000+0 -21164-4 0  9997
2 55629  70.0003  84.0072 0002652 269.7864  90.2991 14.98332335132688
STARLINK-5303           
1 55630U 23021C   25195.93685669 -.00000247  00000+0 -12911-4 0  9993
2 55630  70.0003  83.9770 0002762 270.9512  89.1331 14.98329288132687
STARLINK-5558           
1 55631U 23021D   25195.71153304 -.00000439  00000+0 -29044-4 0  9994
2 55631  69.9997  84.3917 0002783 268.5283  91.5558 14.98330094132658
STARLINK-5546           
1 55632U 23021E   25195.72656233  .00270838  00000+0  20776-1 0  9995
2 55632  69.9993  84.4450 0010966 229.7889 130.2312 15.00231039132653
STARLINK-5498           
1 55633U 23021F   25195.72405385  .00000109  00000+0  16951-4 0  9991
2 55633  69.9998  84.4361 0002878 270.4898  89.5932 14.98329314132650
STARLINK-5500           
1 55634U 23021G   25195.72839390 -.00000139  00000+0 -38384-5 0  9999
2 55634  70.0001  84.4524 0002731 271.5346  88.5500 14.98329444132652
STARLINK-5495           
1 55635U 23021H   25195.70713257  .00000437  00000+0  44438-4 0  9996
2 55635  69.9997  64.5093 0003041 263.9843  96.0969 14.98329782133149
STARLINK-5218           
1 55636U 23021J   25195.71570559  .00000044  00000+0  11512-4 0  9995
2 55636  69.9996  84.4071 0003057 270.2758  89.8051 14.98328056132659
STARLINK-5062           
1 55637U 23021K   25195.72383255 -.00000217  00000+0 -10406-4 0  9997
2 55637  69.9997  64.5645 0002739 269.2024  90.8821 14.98328871133144
STARLINK-5507           
1 55638U 23021L   25195.71987766  .00000413  00000+0  42411-4 0  9991
2 55638  69.9995  84.4220 0002829 270.7373  89.3462 14.98330255132655
STARLINK-5508           
1 55639U 23021M   25195.76988458  .00000059  00000+0  12752-4 0  9997
2 55639  69.9994  64.3243 0002677 270.0378  90.0474 14.98328739133158
STARLINK-5069           
1 55640U 23021N   25195.76554523 -.00000238  00000+0 -12183-4 0  9990
2 55640  69.9997  64.3066 0002877 269.7296  90.3534 14.98330454133159
STARLINK-5065           
1 55641U 23021P   25195.72801084  .00000587  00000+0  56965-4 0  9995
2 55641  69.9994  64.5760 0002960 270.3023  89.7797 14.98321333133147
STARLINK-5483           
1 55643U 23021R   25195.93663231 -.00000039  00000+0  45376-5 0  9998
2 55643  69.9994  64.0970 0002565 269.6079  90.4786 14.98330070133178
STARLINK-5502           
1 55644U 23021S   25195.71548314  .00000200  00000+0  24570-4 0  9990
2 55644  69.9997  64.5358 0002499 238.1085 121.9831 14.98330459133140
STARLINK-5510           
1 55647U 23021V   25195.94912824 -.00000224  00000+0 -11012-4 0  9994
2 55647  69.9994  63.7431 0002834 270.3083  89.7751 14.98330218133181
STARLINK-5501           
1 55648U 23021W   25195.71132605  .00002702  00000+0  23424-3 0  9991
2 55648  70.0001  64.5215 0002629 268.4207  91.6651 14.98320934133142
STARLINK-5469           
1 55649U 23021X   25195.75721057  .00000715  00000+0  67685-4 0  9991
2 55649  69.9993  64.2776 0002658 265.1811  94.9044 14.98334244133158
STARLINK-5494           
1 55650U 23021Y   25195.76972050  .00000340  00000+0  36309-4 0  9998
2 55650  69.9995  64.3229 0002027 271.0142  89.0785 14.98328633133151
STARLINK-5506           
1 55651U 23021Z   25195.71965750 -.00000176  00000+0 -69404-5 0  9995
2 55651  69.9998  64.5500 0002749 270.3136  89.7709 14.98329546133141
STARLINK-5487           
1 55652U 23021AA  25195.76137134 -.00000002  00000+0  76381-5 0  9997
2 55652  69.9997  64.2930 0002725 270.6644  89.4202 14.98328172133156
STARLINK-5067           
1 55653U 23021AB  25195.94495521 -.00000148  00000+0 -46514-5 0  9992
2 55653  69.9997  63.7313 0002223 273.2943  86.7962 14.98329372133189
STARLINK-5070           
1 55654U 23021AC  25195.93245939 -.00000399  00000+0 -25625-4 0  9995
2 55654  69.9997  64.0889 0002921 269.7476  90.3348 14.98330393133171
STARLINK-5267           
1 55655U 23021AD  25195.76950031  .00000162  00000+0  21372-4 0  9994
2 55655  69.9994  44.4482 0002839 275.6101  84.4734 14.98339553133630
STARLINK-5326           
1 55656U 23021AE  25195.94077843  .00000018  00000+0  93186-5 0  9999
2 55656  69.9999  63.7141 0002957 269.9177  90.1643 14.98330452133184
STARLINK-5328           
1 55657U 23021AF  25195.71108565  .00000043  00000+0  11404-4 0  9991
2 55657  69.9992  44.6456 0002967 268.9657  91.1162 14.98326256133632
STARLINK-5307           
1 55658U 23021AG  25195.95330425 -.00000354  00000+0 -21912-4 0  9992
2 55658  69.9991  63.7573 0002681 272.3371  87.7481 14.98329442133184
STARLINK-5477           
1 55659U 23021AH  25195.70691203 -.00000728  00000+0 -53191-4 0  9999
2 55659  69.9999  44.6321 0002777 267.9045  92.1796 14.98328903133625
STARLINK-5467           
1 55660U 23021AJ  25195.91668981  .00023734  00000+0  19909-2 0  9998
2 55660  70.0016  43.8082 0002944 271.9659  49.4424 14.98315862  5819
STARLINK-5475           
1 55661U 23021AK  25195.75697262 -.00000112  00000+0 -15558-5 0  9991
2 55661  69.9998  44.4047 0002905 266.8239  93.2588 14.98329132133644
STARLINK-5479           
1 55662U 23021AL  25195.76698554 -.00001005  00000+0 -74753-4 0  9991
2 55662  69.9991  44.0586 0002935 281.2486  78.8343 14.99145012133653
STARLINK-5473           
1 55663U 23021AM  25195.68186788 -.00001114  00000+0 -85549-4 0  9990
2 55663  69.9995  44.5429 0002478 266.0205  94.0671 14.98334251133626
STARLINK-5480           
1 55664U 23021AN  25195.76532277 -.00000259  00000+0 -13880-4 0  9996
2 55664  69.9995  44.4329 0002899 268.6021  91.4805 14.98328765133641
STARLINK-5474           
1 55665U 23021AP  25195.94473218 -.00000478  00000+0 -32242-4 0  9992
2 55665  69.9997  43.8556 0002850 269.7447  90.3386 14.98329249133673
STARLINK-5456           
1 55667U 23021AR  25195.66516874 -.00000114  00000+0 -17258-5 0  9997
2 55667  69.9999  44.4864 0002598 270.9658  89.1203 14.98330546133635
STARLINK-5455           
1 55668U 23021AS  25195.76116165  .00000257  00000+0  29316-4 0  9991
2 55668  69.9997  44.4180 0002785 265.4364  94.6476 14.98328605133643
STARLINK-5459           
1 55669U 23021AT  25195.95309973  .00000925  00000+0  85284-4 0  9992
2 55669  69.9993  43.8838 0002753 269.4098  90.6745 14.98325969133663
STARLINK-5423           
1 55670U 23021AU  25195.94056281  .00000311  00000+0  33871-4 0  9998
2 55670  69.9994  43.8393 0002873 271.0319  89.0511 14.98313630133676
STARLINK-5460           
1 55671U 23021AV  25195.71959799 -.00000478  00000+0 -32240-4 0  9995
2 55671  69.9996  44.6648 0002993 270.1027  89.9789 14.98330516133634
STARLINK-5463           
1 55673U 23021AX  25195.66934357 -.00000028  00000+0  54108-5 0  9992
2 55673  69.9993  44.4975 0002894 269.3066  90.7761 14.98329426133635
STARLINK-5462           
1 55674U 23021AY  25195.91668981  .00025234  00000+0  21156-2 0  9997
2 55674  70.0015  43.8237 0002894 272.4187  26.4955 14.98318695  5812
STARLINK-5232           
1 55675U 23021AZ  25195.71940731 -.00000291  00000+0 -16638-4 0  9991
2 55675  69.9997  44.2745 0002850 269.6538  90.4294 14.98330687133643
STARLINK-5300           
1 55676U 23021BA  25195.93632468 -.00000179  00000+0 -72455-5 0  9996
2 55676  69.9995  23.9554 0002696 264.2109  95.8742 14.98330267134166
STARLINK-5324           
1 55677U 23021BB  25195.92364055 -.00000891  00000+0 -66869-4 0  9992
2 55677  69.9999  23.9090 0002741 268.5165  91.5680 14.98326444134162
ZHONGXING-26            
1 55686U 23023A   25195.65542187 -.00000346  00000+0  00000+0 0  9992
2 55686   0.0850  78.9553 0003410  25.6953 189.1869  1.00272488  8844
HORUS 1                 
1 55690U 23025A   25195.92919780  .00004534  00000+0  19277-3 0  9998
2 55690  97.3828 271.8468 0001594 118.4728 241.6670 15.23529617132700
STARLINK-5592           
1 55741U 23028A   25195.53259180 -.00000068  00000+0  21052-5 0  9991
2 55741  70.0003 125.0517 0003066 265.5568  94.5241 14.98330211130558
STARLINK-5594           
1 55742U 23028B   25195.93733307 -.00000429  00000+0 -28129-4 0  9997
2 55742  69.9998 124.0565 0003588 259.2905 100.7850 14.98323411130421
STARLINK-5602           
1 55743U 23028C   25195.94149937  .00000168  00000+0  21885-4 0  9999
2 55743  70.0002 124.0718 0002883 269.9950  90.0879 14.98331506130422
STARLINK-5601           
1 55744U 23028D   25195.93749071  .00000254  00000+0  29124-4 0  9994
2 55744  69.9998 124.0563 0003157 258.2368 101.8437 14.98329719130425
STARLINK-5579           
1 55746U 23028F   25195.91668981 -.00038610  00000+0 -32436-2 0  9991
2 55746  70.0023 123.9326 0003253 265.1080 141.2465 14.98356756130429
STARLINK-5539           
1 55747U 23028G   25195.52422015 -.00008075  00000+0 -66904-3 0  9995
2 55747  70.0020 125.0193 0002956 274.2911  85.7910 14.98370483130368
STARLINK-5580           
1 55748U 23028H   25195.52007817  .00002687  00000+0  23285-3 0  9991
2 55748  70.0002 125.0071 0002971 269.3115  90.7703 14.98334952130369
STARLINK-5573           
1 55750U 23028K   25195.24885137  .00000397  00000+0  41024-4 0  9990
2 55750  70.0006 125.6665 0003267 259.2749 100.8043 14.98332693130327
STARLINK-5577           
1 55751U 23028L   25195.19461654 -.00000033  00000+0  49849-5 0  9991
2 55751  70.0005 125.8788 0002896 259.0299 101.0535 14.98331050130314
STARLINK-5613           
1 55752U 23028M   25195.95816813  .00000081  00000+0  14549-4 0  9997
2 55752  70.0004 123.7265 0003157 260.2135  99.8667 14.98330216130431
